IRIDIUM 57 [-]          
1 25273U 98019B   23319.25281084  .00000475  00000+0  16009-3 0  9998
2 25273  86.4001  28.1103 0002118  93.8714 266.2725 14.34983235341807
IRIDIUM 63 [-]          
1 25286U 98021B   23319.49458689  .00000510  00000+0  17079-3 0  9996
2 25286  86.3961 324.9628 0002178  85.9992 274.1453 14.35487684340926
IRIDIUM 69 [-]          
1 25319U 98026A   23319.49375177  .00000594  00000+0  18368-3 0  9992
2 25319  86.3982 339.9734 0004163 113.3612 246.8025 14.39666949339860
IRIDIUM 71 [-]          
1 25320U 98026B   23318.77743850  .00000476  00000+0  14509-3 0  9993
2 25320  86.3968 335.0960 0002525 144.4819 215.6548 14.39991373340035
IRIDIUM 73 [-]          
1 25344U 98032C   23319.45513618  .00000795  00000+0  19968-3 0  9997
2 25344  86.4378 292.5657 0002752 100.6078 259.5437 14.50130032346805
IRIDIUM 82 [-]          
1 25467U 98051A   23319.25558320  .00010392  00000+0  60361-3 0  9998
2 25467  86.3969  26.9377 0141798 286.5307  72.0390 15.03769534336121
IRIDIUM 2 [-]           
1 25527U 98066A   23318.60015090  .00038108  00000+0  80352-3 0  9998
2 25527  85.5183  79.7023 0004956  77.6329 282.5481 15.45058447373814
